0 LEMUR 2 ANDIS
1 42838U 17042P   24003.52937592  .00006480  00000-0  52045-3 0  9997
2 42838  97.3695 200.2824 0012313 245.7892 114.2046 15.00301819352771
0 LEMUR 2 ANDIS
1 42838U 17042P   24003.52937592  .00006480  00000-0  52045-3 0  9997
2 42838  97.3695 200.2824 0012313 245.7892 114.2046 15.00301819352771
0 LEMUR 2 ANDIS
1 42838U 17042P   24004.52980007  .00005915  00000-0  47536-3 0  9998
2 42838  97.3698 201.2311 0012419 241.1120 118.8859 15.00313560352922
0 LEMUR 2 ANDIS
1 42838U 17042P   24004.52980007  .00005915  00000-0  47536-3 0  9998
2 42838  97.3698 201.2311 0012419 241.1120 118.8859 15.00313560352922
0 LEMUR 2 ANDIS
1 42838U 17042P   24005.53021585  .00006295  00000-0  50538-3 0  9995
2 42838  97.3698 202.1796 0012489 236.9473 123.0553 15.00326978353072
0 LEMUR 2 ANDIS
1 42838U 17042P   24005.53021585  .00006295  00000-0  50538-3 0  9995
2 42838  97.3698 202.1796 0012489 236.9473 123.0553 15.00326978353072
0 LEMUR 2 MONSON
1 42839U 17042Q   24003.06818414  .00005936  00000-0  48472-3 0  9992
2 42839  97.3748 199.4888 0010722 250.3083 109.6984 14.99715948352662
0 LEMUR 2 MONSON
1 42839U 17042Q   24003.53523213  .00005675  00000-0  46351-3 0  9998
2 42839  97.3749 199.9314 0010674 248.5844 111.4241 14.99721098352730
0 LEMUR 2 MONSON
1 42839U 17042Q   24004.46932288  .00005735  00000-0  46823-3 0  9998
2 42839  97.3749 200.8165 0010630 244.7212 115.2911 14.99732164352872
0 LEMUR 2 MONSON
1 42839U 17042Q   24004.53604357  .00005383  00000-0  43982-3 0  9991
2 42839  97.3749 200.8799 0010630 244.3466 115.6660 14.99732118352887
0 LEMUR 2 MONSON
1 42839U 17042Q   24005.47012749  .00005524  00000-0  45105-3 0  9999
2 42839  97.3750 201.7652 0010653 239.8400 120.1769 14.99742844353024
0 LEMUR 2 MONSON
1 42839U 17042Q   24005.53684776  .00005096  00000-0  41652-3 0  9998
2 42839  97.3750 201.8284 0010652 239.5576 120.4596 14.99742573353037
0 LEMUR 2 FURIAUS
1 42840U 17042R   24003.50545665  .00006019  00000-0  48925-3 0  9994
2 42840  97.3823 200.3212 0008846 263.9184  96.1032 14.99899579352721
0 LEMUR 2 FURIAUS
1 42840U 17042R   24003.50545665  .00006019  00000-0  48925-3 0  9994
2 42840  97.3823 200.3212 0008846 263.9184  96.1032 14.99899579352721
0 LEMUR 2 FURIAUS
1 42840U 17042R   24003.83902135  .00006281  00000-0  51028-3 0  9998
2 42840  97.3824 200.6377 0008866 262.7088  97.3129 14.99904119352771
0 LEMUR 2 FURIAUS
1 42840U 17042R   24004.50614748  .00006083  00000-0  49423-3 0  9999
2 42840  97.3823 201.2707 0008911 260.1050  99.9168 14.99912592352872
0 LEMUR 2 FURIAUS
1 42840U 17042R   24004.50614748  .00006083  00000-0  49423-3 0  9999
2 42840  97.3823 201.2707 0008911 260.1050  99.9168 14.99912592352872
0 LEMUR 2 FURIAUS
1 42840U 17042R   24005.50682971  .00006179  00000-0  50176-3 0  9996
2 42840  97.3823 202.2202 0008981 256.4895 103.5329 14.99925626353026
0 LEMUR 2 FURIAUS
1 42840U 17042R   24005.50682971  .00006179  00000-0  50176-3 0  9996
2 42840  97.3823 202.2202 0008981 256.4895 103.5329 14.99925626353026
0 LEMUR 2 FURIAUS
1 42840U 17042R   24005.84038876  .00006033  00000-0  49001-3 0  9996
2 42840  97.3824 202.5367 0009026 255.5918 104.4305 14.99929310353072
0 LEMUR 2 PETERG
1 42841U 17042S   24003.08320047  .00007712  00000-0  62757-3 0  9993
2 42841  97.3780 201.2516 0009069 245.1023 114.9258 14.99769257352732
0 LEMUR 2 PETERG
1 42841U 17042S   24003.48351269  .00007659  00000-0  62317-3 0  9999
2 42841  97.3780 201.6312 0009026 243.6376 116.3922 14.99775692352797
0 LEMUR 2 PETERG
1 42841U 17042S   24004.08397816  .00007682  00000-0  62491-3 0  9993
2 42841  97.3782 202.2003 0009053 240.5921 119.4400 14.99784992352883
0 LEMUR 2 PETERG
1 42841U 17042S   24004.55100492  .00006796  00000-0  55334-3 0  9990
2 42841  97.3783 202.6431 0009047 238.4565 121.5776 14.99790081352950
0 LEMUR 2 PETERG
1 42841U 17042S   24005.08474721  .00006675  00000-0  54343-3 0  9993
2 42841  97.3784 203.1494 0009001 236.4490 123.5875 14.99797431353039
0 LEMUR 2 PETERG
1 42841U 17042S   24005.48505189  .00007390  00000-0  60102-3 0  9995
2 42841  97.3784 203.5289 0009004 234.6871 125.3512 14.99804234353095
0 LEMUR 2 DEMBITZ
1 42842U 17042T   24003.07140044  .00006607  00000-0  53376-3 0  9999
2 42842  97.3734 201.1996 0011220 244.1864 115.8203 15.00080378352752
0 LEMUR 2 DEMBITZ
1 42842U 17042T   24003.53833461  .00006527  00000-0  52733-3 0  9999
2 42842  97.3735 201.6426 0011215 242.2853 117.7234 15.00086788352821
0 LEMUR 2 DEMBITZ
1 42842U 17042T   24004.47219738  .00006488  00000-0  52399-3 0  9992
2 42842  97.3735 202.5278 0011207 238.3128 121.7004 15.00099377352961
0 LEMUR 2 DEMBITZ
1 42842U 17042T   24004.53890151  .00006265  00000-0  50617-3 0  9997
2 42842  97.3735 202.5912 0011220 237.8872 122.1264 15.00099880352974
0 LEMUR 2 DEMBITZ
1 42842U 17042T   24005.47275719  .00005956  00000-0  48133-3 0  9994
2 42842  97.3738 203.4769 0011222 234.0546 125.9638 15.00110761353111
0 LEMUR 2 DEMBITZ
1 42842U 17042T   24005.53946111  .00005541  00000-0  44812-3 0  9992
2 42842  97.3737 203.5402 0011215 233.8470 126.1717 15.00110621353127
0 LEMUR 2 ZACHARY
1 42845U 17042W   24003.52106870  .00006618  00000-0  49700-3 0  9999
2 42845  97.3813 201.3693 0007532 287.3242  72.7160 15.02900699352942
0 LEMUR 2 ZACHARY
1 42845U 17042W   24003.52106870  .00006618  00000-0  49700-3 0  9999
2 42845  97.3813 201.3693 0007532 287.3242  72.7160 15.02900699352942
0 LEMUR 2 ZACHARY
1 42845U 17042W   24004.51976195  .00006949  00000-0  52142-3 0  9995
2 42845  97.3811 202.3212 0007586 283.3152  76.7228 15.02915442353091
0 LEMUR 2 ZACHARY
1 42845U 17042W   24005.05239447  .00006460  00000-0  48495-3 0  9991
2 42845  97.3810 202.8288 0007622 281.2377  78.7992 15.02922455353176
0 LEMUR 2 ZACHARY
1 42845U 17042W   24005.51844556  .00007095  00000-0  53207-3 0  9997
2 42845  97.3809 203.2729 0007659 279.4514  80.5846 15.02930211353247
0 LEMUR 2 JIN-LUEN
1 43182U 18014C   24003.28355274  .00008738  00000-0  57323-3 0  9996
2 43182  97.6021 267.8604 0012780 194.2442 165.8427 15.07838673323719
0 LEMUR 2 JIN-LUEN
1 43182U 18014C   24003.28355274  .00008738  00000-0  57323-3 0  9996
2 43182  97.6021 267.8604 0012780 194.2442 165.8427 15.07838673323719
0 LEMUR 2 JIN-LUEN
1 43182U 18014C   24003.68172318  .00008862  00000-0  58116-3 0  9995
2 43182  97.6022 268.2540 0012829 192.8525 167.2378 15.07846219323776
0 LEMUR 2 JIN-LUEN
1 43182U 18014C   24004.61078050  .00008599  00000-0  56385-3 0  9990
2 43182  97.6026 269.1729 0012840 189.2894 170.8099 15.07862756323911
0 LEMUR 2 JIN-LUEN
1 43182U 18014C   24004.67714154  .00008478  00000-0  55597-3 0  9998
2 43182  97.6026 269.2386 0012816 188.9651 171.1350 15.07863690323924
0 LEMUR 2 JIN-LUEN
1 43182U 18014C   24004.67714154  .00008478  00000-0  55597-3 0  9998
2 43182  97.6026 269.2386 0012816 188.9651 171.1350 15.07863690323924
0 LEMUR 2 JIN-LUEN
1 43182U 18014C   24005.20802636  .00008702  00000-0  57035-3 0  9990
2 43182  97.6029 269.7635 0012947 187.1236 172.9810 15.07873712324000
0 LEMUR 2 JIN-LUEN
1 43182U 18014C   24005.67254856  .00007745  00000-0  50808-3 0  9993
2 43182  97.6031 270.2227 0012923 185.3234 174.7859 15.07879923324079
0 LEMUR 2 URAMCHANSOL
1 43183U 18014D   24003.26425708  .00009524  00000-0  59037-3 0  9993
2 43183  97.6017 268.7283 0012977 181.7553 178.3632 15.09895113323766
0 LEMUR 2 URAMCHANSOL
1 43183U 18014D   24003.26425708  .00009524  00000-0  59037-3 0  9993
2 43183  97.6017 268.7283 0012977 181.7553 178.3632 15.09895113323766
0 LEMUR 2 URAMCHANSOL
1 43183U 18014D   24003.66188574  .00009402  00000-0  58273-3 0  9990
2 43183  97.6017 269.1227 0013073 180.2089 179.9137 15.09902950323827
0 LEMUR 2 URAMCHANSOL
1 43183U 18014D   24004.19205421  .00009548  00000-0  59152-3 0  9998
2 43183  97.6016 269.6487 0013165 178.1561 181.9719 15.09913847323907
0 LEMUR 2 URAMCHANSOL
1 43183U 18014D   24004.72221979  .00008704  00000-0  53949-3 0  9994
2 43183  97.6016 270.1745 0013192 176.2156 183.9175 15.09921935323983
0 LEMUR 2 URAMCHANSOL
1 43183U 18014D   24004.72221979  .00008704  00000-0  53949-3 0  9994
2 43183  97.6016 270.1745 0013192 176.2156 183.9175 15.09921935323983
0 LEMUR 2 URAMCHANSOL
1 43183U 18014D   24005.18611173  .00008202  00000-0  50853-3 0  9998
2 43183  97.6017 270.6345 0013244 174.6385 185.4988 15.09929677324058
0 LEMUR 2 URAMCHANSOL
1 43183U 18014D   24005.71627108  .00008023  00000-0  49740-3 0  9996
2 43183  97.6018 271.1602 0013358 172.8222 187.3201 15.09938330324131
0 LEMUR 2 KADI
1 43184U 18014E   24003.25885795  .00007769  00000-0  50072-3 0  9998
2 43184  97.5882 267.4743 0011991 167.8435 192.3085 15.08538951323718
0 LEMUR 2 KADI
1 43184U 18014E   24003.65684408  .00007751  00000-0  49944-3 0  9997
2 43184  97.5882 267.8677 0012032 166.4204 193.7350 15.08545366323778
0 LEMUR 2 KADI
1 43184U 18014E   24004.18748948  .00008004  00000-0  51546-3 0  9999
2 43184  97.5882 268.3920 0012125 164.5260 195.6341 15.08554713323855
0 LEMUR 2 KADI
1 43184U 18014E   24004.18748948  .00008004  00000-0  51546-3 0  9999
2 43184  97.5882 268.3920 0012125 164.5260 195.6341 15.08554713323855
0 LEMUR 2 KADI
1 43184U 18014E   24004.71813233  .00007267  00000-0  46834-3 0  9992
2 43184  97.5881 268.9164 0012170 162.6868 197.4777 15.08561603323931
0 LEMUR 2 KADI
1 43184U 18014E   24005.24877179  .00007666  00000-0  49365-3 0  9995
2 43184  97.5881 269.4407 0012258 160.8428 199.3264 15.08570965324019
0 LEMUR 2 KADI
1 43184U 18014E   24005.24877179  .00007666  00000-0  49365-3 0  9995
2 43184  97.5881 269.4407 0012258 160.8428 199.3264 15.08570965324019
0 LEMUR 2 KADI
1 43184U 18014E   24005.71307936  .00006925  00000-0  44627-3 0  9999
2 43184  97.5878 269.8993 0012314 159.3497 200.8232 15.08576677324087
0 LEMUR 2 THENICKMOLO
1 43185U 18014F   24003.26988911  .00010372  00000-0  65667-3 0  9994
2 43185  97.5960 268.1159 0008135 168.3197 191.8222 15.09137196323738
0 LEMUR 2 THENICKMOLO
1 43185U 18014F   24003.53510808  .00010362  00000-0  65593-3 0  9997
2 43185  97.5960 268.3785 0008183 167.3000 192.8436 15.09142716323776
